MALLIGYONG-1            
1 58400U 23179A   23332.65387599  .00008902  00000+0  40051-3 0  9995
2 58400  97.4270 217.3399 0014221 252.8918 107.0760 15.21244170  1073
